start=new Date('2021-11-03T00:00:00.000Z').valueOf();
sats=[{"SITE":"AFETR","REV_AT_EPOCH":"5280","CENTER_NAME":"EARTH","FILE":"3198350","GP_ID":"188774555","COUNTRY_CODE":"US","EPHEMERIS_TYPE":"0","OBJECT_NAME":"STARLINK-1879","OBJECT_ID":"2020-088AU","MEAN_MOTION_DOT":"-0.00003049","INCLINATION":"53.0550","BSTAR":"-0.00018591000000","PERIOD":"95.592","CLASSIFICATION_TYPE":"U","APOAPSIS":"548.222","NORAD_CAT_ID":"47164","DECAY_DATE":null,"ARG_OF_PERICENTER":"59.7174","REF_FRAME":"TEME","RCS_SIZE":"LARGE","RA_OF_ASC_NODE":"209.4310","MEAN_MOTION":"15.06398461","PERIAPSIS":"546.214","SEMIMAJOR_AXIS":"6925.353","ELEMENT_SET_NO":"999","ECCENTRICITY":"0.00014500","LAUNCH_DATE":"2020-11-25","MEAN_ELEMENT_THEORY":"SGP4","MEAN_ANOMALY":"300.3958","TLE_LINE2":"2 47164  53.0550 209.4310 0001450  59.7174 300.3958 15.06398461 52800","MEAN_MOTION_DDOT":"0.0000000000000","EPOCH":"2021-11-02T21:49:53.726304","TIME_SYSTEM":"UTC","OBJECT_TYPE":"PAYLOAD","TLE_LINE1":"1 47164U 20088AU  21306.90964961 -.00003049  00000-0 -18591-3 0  9991"},{"MEAN_MOTION":"15.06397523","REF_FRAME":"TEME","ARG_OF_PERICENTER":"64.2147","RA_OF_ASC_NODE":"231.2023","RCS_SIZE":"LARGE","DECAY_DATE":null,"APOAPSIS":"548.347","NORAD_CAT_ID":"47165","TLE_LINE1":"1 47165U 20088AV  21306.51709479 -.00001158  00000-0 -58848-4 0  9999","EPOCH":"2021-11-02T12:24:36.989856","TIME_SYSTEM":"UTC","OBJECT_TYPE":"PAYLOAD","LAUNCH_DATE":"2020-11-25","MEAN_ELEMENT_THEORY":"SGP4","MEAN_ANOMALY":"295.9010","MEAN_MOTION_DDOT":"0.0000000000000","TLE_LINE2":"2 47165  53.0539 231.2023 0001626  64.2147 295.9010 15.06397523 52466","PERIAPSIS":"546.095","SEMIMAJOR_AXIS":"6925.356","ELEMENT_SET_NO":"999","ECCENTRICITY":"0.00016260","GP_ID":"188774807","CENTER_NAME":"EARTH","REV_AT_EPOCH":"5246","FILE":"3198350","SITE":"AFETR","CLASSIFICATION_TYPE":"U","BSTAR":"-0.00005884800000","PERIOD":"95.592","EPHEMERIS_TYPE":"0","OBJECT_ID":"2020-088AV","OBJECT_NAME":"STARLINK-1880","MEAN_MOTION_DOT":"-0.00001158","INCLINATION":"53.0539","COUNTRY_CODE":"US"},{"DECAY_DATE":null,"APOAPSIS":"474.984","NORAD_CAT_ID":"47166","MEAN_MOTION":"15.30587050","REF_FRAME":"TEME","ARG_OF_PERICENTER":"69.5417","RA_OF_ASC_NODE":"191.8723","RCS_SIZE":"LARGE","LAUNCH_DATE":"2020-11-25","MEAN_ELEMENT_THEORY":"SGP4","MEAN_ANOMALY":"290.5727","MEAN_MOTION_DDOT":"0.0000000000000","TLE_LINE2":"2 47166  53.0502 191.8723 0001346  69.5417 290.5727 15.30587050 53057","PERIAPSIS":"473.139","ECCENTRICITY":"0.00013460","SEMIMAJOR_AXIS":"6852.197","ELEMENT_SET_NO":"999","TLE_LINE1":"1 47166U 20088AW  21306.87883557  .00034592  00000-0  11606-2 0  9994","EPOCH":"2021-11-02T21:05:31.393248","TIME_SYSTEM":"UTC","OBJECT_TYPE":"PAYLOAD","CENTER_NAME":"EARTH","REV_AT_EPOCH":"5305","FILE":"3198350","SITE":"AFETR","GP_ID":"188775557","EPHEMERIS_TYPE":"0","OBJECT_ID":"2020-088AW","OBJECT_NAME":"STARLINK-1881","MEAN_MOTION_DOT":"0.00034592","INCLINATION":"53.0502","COUNTRY_CODE":"US","CLASSIFICATION_TYPE":"U","BSTAR":"0.00116060000000","PERIOD":"94.082"},{"REF_FRAME":"TEME","ARG_OF_PERICENTER":"355.4501","RCS_SIZE":"LARGE","RA_OF_ASC_NODE":"230.0895","MEAN_MOTION":"15.06392942","APOAPSIS":"551.694","NORAD_CAT_ID":"47167","DECAY_DATE":null,"EPOCH":"2021-11-02T18:25:32.545920","TIME_SYSTEM":"UTC","OBJECT_TYPE":"PAYLOAD","TLE_LINE1":"1 47167U 20088AX  21306.76773780 -.00001312  00000-0 -69019-4 0  9998","PERIAPSIS":"542.777","ELEMENT_SET_NO":"999","SEMIMAJOR_AXIS":"6925.370","ECCENTRICITY":"0.00064380","LAUNCH_DATE":"2020-11-25","MEAN_ANOMALY":"4.6428","MEAN_ELEMENT_THEORY":"SGP4","MEAN_MOTION_DDOT":"0.0000000000000","TLE_LINE2":"2 47167  53.0540 230.0895 0006438 355.4501   4.6428 15.06392942 52502","GP_ID":"188773806","SITE":"AFETR","CENTER_NAME":"EARTH","REV_AT_EPOCH":"5250","FILE":"3198350","BSTAR":"-0.00006901900000","PERIOD":"95.593","CLASSIFICATION_TYPE":"U","COUNTRY_CODE":"US","EPHEMERIS_TYPE":"0","OBJECT_ID":"2020-088AX","OBJECT_NAME":"STARLINK-1884","MEAN_MOTION_DOT":"-0.00001312","INCLINATION":"53.0540"},{"PERIOD":"95.592","BSTAR":"0.00006535500000","CLASSIFICATION_TYPE":"U","COUNTRY_CODE":"US","MEAN_MOTION_DOT":"0.00000692","INCLINATION":"53.0543","EPHEMERIS_TYPE":"0","OBJECT_NAME":"STARLINK-1885","OBJECT_ID":"2020-088AY","GP_ID":"188774056","SITE":"AFETR","FILE":"3198350","REV_AT_EPOCH":"5246","CENTER_NAME":"EARTH","EPOCH":"2021-11-02T11:58:03.721152","TIME_SYSTEM":"UTC","OBJECT_TYPE":"PAYLOAD","TLE_LINE1":"1 47168U 20088AY  21306.49865418  .00000692  00000-0  65355-4 0  9996","ELEMENT_SET_NO":"999","SEMIMAJOR_AXIS":"6925.338","ECCENTRICITY":"0.00015950","PERIAPSIS":"546.098","MEAN_ANOMALY":"289.9175","MEAN_ELEMENT_THEORY":"SGP4","TLE_LINE2":"2 47168  53.0543 231.2879 0001595  70.1985 289.9175 15.06403462 52469","MEAN_MOTION_DDOT":"0.0000000000000","LAUNCH_DATE":"2020-11-25","RCS_SIZE":"LARGE","RA_OF_ASC_NODE":"231.2879","ARG_OF_PERICENTER":"70.1985","REF_FRAME":"TEME","MEAN_MOTION":"15.06403462","NORAD_CAT_ID":"47168","APOAPSIS":"548.308","DECAY_DATE":null},{"GP_ID":"188775307","FILE":"3198350","CENTER_NAME":"EARTH","REV_AT_EPOCH":"5246","SITE":"AFETR","CLASSIFICATION_TYPE":"U","PERIOD":"95.592","BSTAR":"0.00002729600000","INCLINATION":"53.0544","MEAN_MOTION_DOT":"0.00000125","EPHEMERIS_TYPE":"0","OBJECT_NAME":"STARLINK-1887","OBJECT_ID":"2020-088BA","COUNTRY_CODE":"US","MEAN_MOTION":"15.06400065","RCS_SIZE":"LARGE","RA_OF_ASC_NODE":"231.3417","REF_FRAME":"TEME","ARG_OF_PERICENTER":"63.3194","DECAY_DATE":null,"APOAPSIS":"548.426","NORAD_CAT_ID":"47170","TLE_LINE1":"1 47170U 20088BA  21306.48759845  .00000125  00000-0  27296-4 0  9997","EPOCH":"2021-11-02T11:42:08.506080","OBJECT_TYPE":"PAYLOAD","TIME_SYSTEM":"UTC","MEAN_ELEMENT_THEORY":"SGP4","MEAN_ANOMALY":"296.7974","TLE_LINE2":"2 47170  53.0544 231.3417 0001751  63.3194 296.7974 15.06400065 52461","MEAN_MOTION_DDOT":"0.0000000000000","LAUNCH_DATE":"2020-11-25","SEMIMAJOR_AXIS":"6925.348","ELEMENT_SET_NO":"999","ECCENTRICITY":"0.00017510","PERIAPSIS":"546.001"},{"CLASSIFICATION_TYPE":"U","PERIOD":"95.592","BSTAR":"0.00003265900000","MEAN_MOTION_DOT":"0.00000205","INCLINATION":"53.0551","OBJECT_ID":"2020-088BB","OBJECT_NAME":"STARLINK-1888","EPHEMERIS_TYPE":"0","COUNTRY_CODE":"US","GP_ID":"188775058","FILE":"3198350","REV_AT_EPOCH":"5266","CENTER_NAME":"EARTH","SITE":"AFETR","TLE_LINE1":"1 47171U 20088BB  21306.90503615  .00000205  00000-0  32659-4 0  9995","OBJECT_TYPE":"PAYLOAD","TIME_SYSTEM":"UTC","EPOCH":"2021-11-02T21:43:15.123360","TLE_LINE2":"2 47171  53.0551 219.4646 0001587  71.0020 289.1141 15.06395221 52663","MEAN_MOTION_DDOT":"0.0000000000000","MEAN_ELEMENT_THEORY":"SGP4","MEAN_ANOMALY":"289.1141","LAUNCH_DATE":"2020-11-25","SEMIMAJOR_AXIS":"6925.363","ELEMENT_SET_NO":"999","ECCENTRICITY":"0.00015870","PERIAPSIS":"546.129","MEAN_MOTION":"15.06395221","RA_OF_ASC_NODE":"219.4646","RCS_SIZE":"LARGE","REF_FRAME":"TEME","ARG_OF_PERICENTER":"71.0020","DECAY_DATE":null,"APOAPSIS":"548.327","NORAD_CAT_ID":"47171"},{"CLASSIFICATION_TYPE":"U","PERIOD":"92.449","BSTAR":"0.00139360000000","MEAN_MOTION_DOT":"0.00105694","INCLINATION":"53.0551","EPHEMERIS_TYPE":"0","OBJECT_NAME":"STARLINK-1889","OBJECT_ID":"2020-088BC","COUNTRY_CODE":"US","GP_ID":"188774306","FILE":"3198350","REV_AT_EPOCH":"5270","CENTER_NAME":"EARTH","SITE":"AFETR","TLE_LINE1":"1 47172U 20088BC  21306.91287371  .00105694  00000-0  13936-2 0  9998","EPOCH":"2021-11-02T21:54:32.288544","TIME_SYSTEM":"UTC","OBJECT_TYPE":"PAYLOAD","MEAN_ELEMENT_THEORY":"SGP4","MEAN_ANOMALY":"249.3261","MEAN_MOTION_DDOT":"0.0000000000000","TLE_LINE2":"2 47172  53.0551 216.7489 0001502 110.7912 249.3261 15.57610839 52704","LAUNCH_DATE":"2020-11-25","SEMIMAJOR_AXIS":"6772.711","ELEMENT_SET_NO":"999","ECCENTRICITY":"0.00015020","PERIAPSIS":"393.559","MEAN_MOTION":"15.57610839","RCS_SIZE":"LARGE","RA_OF_ASC_NODE":"216.7489","REF_FRAME":"TEME","ARG_OF_PERICENTER":"110.7912","DECAY_DATE":null,"APOAPSIS":"395.593","NORAD_CAT_ID":"47172"},{"OBJECT_NAME":"STARLINK-1890","OBJECT_ID":"2020-088BD","EPHEMERIS_TYPE":"0","MEAN_MOTION_DOT":"-0.00000674","INCLINATION":"53.0542","COUNTRY_CODE":"US","CLASSIFICATION_TYPE":"U","BSTAR":"-0.00002639600000","PERIOD":"95.593","CENTER_NAME":"EARTH","REV_AT_EPOCH":"5246","FILE":"3198350","SITE":"AFETR","GP_ID":"188774556","LAUNCH_DATE":"2020-11-25","MEAN_MOTION_DDOT":"0.0000000000000","TLE_LINE2":"2 47173  53.0542 231.2749 0001399  67.2951 292.8186 15.06391908 52468","MEAN_ELEMENT_THEORY":"SGP4","MEAN_ANOMALY":"292.8186","PERIAPSIS":"546.269","SEMIMAJOR_AXIS":"6925.373","ELEMENT_SET_NO":"999","ECCENTRICITY":"0.00013990","TLE_LINE1":"1 47173U 20088BD  21306.50140263 -.00000674  00000-0 -26396-4 0  9992","TIME_SYSTEM":"UTC","OBJECT_TYPE":"PAYLOAD","EPOCH":"2021-11-02T12:02:01.187232","DECAY_DATE":null,"APOAPSIS":"548.207","NORAD_CAT_ID":"47173","MEAN_MOTION":"15.06391908","ARG_OF_PERICENTER":"67.2951","REF_FRAME":"TEME","RCS_SIZE":"LARGE","RA_OF_ASC_NODE":"231.2749"},{"RCS_SIZE":"LARGE","RA_OF_ASC_NODE":"231.2411","REF_FRAME":"TEME","ARG_OF_PERICENTER":"62.7761","MEAN_MOTION":"15.06399240","APOAPSIS":"548.405","NORAD_CAT_ID":"47174","DECAY_DATE":null,"EPOCH":"2021-11-02T12:13:59.571264","TIME_SYSTEM":"UTC","OBJECT_TYPE":"PAYLOAD","TLE_LINE1":"1 47174U 20088BE  21306.50971726 -.00000271  00000-0  72840-6 0  9998","ELEMENT_SET_NO":"999","SEMIMAJOR_AXIS":"6925.351","ECCENTRICITY":"0.00017170","PERIAPSIS":"546.027","MEAN_ELEMENT_THEORY":"SGP4","MEAN_ANOMALY":"297.3403","TLE_LINE2":"2 47174  53.0553 231.2411 0001717  62.7761 297.3403 15.06399240 52469","MEAN_MOTION_DDOT":"0.0000000000000","LAUNCH_DATE":"2020-11-25","GP_ID":"188774808","SITE":"AFETR","FILE":"3198350","REV_AT_EPOCH":"5246","CENTER_NAME":"EARTH","PERIOD":"95.592","BSTAR":"0.00000072840000","CLASSIFICATION_TYPE":"U","COUNTRY_CODE":"US","INCLINATION":"53.0553","MEAN_MOTION_DOT":"-0.00000271","EPHEMERIS_TYPE":"0","OBJECT_ID":"2020-088BE","OBJECT_NAME":"STARLINK-1891"}];
